{
    "links": {
        "self": "http://www.neowsapp.com/rest/v1/neo/54055031?api_key=iIulBulltgU6a56xZRHN4H3l9WmuAYTsLGpBGhQ2"
    },
    "id": "54055031",
    "neo_reference_id": "54055031",
    "name": "(2020 TZ)",
    "designation": "2020 TZ",
    "nasa_jpl_url": "http://ssd.jpl.nasa.gov/sbdb.cgi?sstr=54055031",
    "absolute_magnitude_h": 27.632,
    "estimated_diameter": {
        "kilometers": {
            "estimated_diameter_min": 0.0079096083,
            "estimated_diameter_max": 0.0176864218
        },
        "meters": {
            "estimated_diameter_min": 7.9096082951,
            "estimated_diameter_max": 17.6864218231
        },
        "miles": {
            "estimated_diameter_min": 0.0049148012,
            "estimated_diameter_max": 0.0109898296
        },
        "feet": {
            "estimated_diameter_min": 25.9501592788,
            "estimated_diameter_max": 58.0263201742
        }
    },
    "is_potentially_hazardous_asteroid": false,
    "close_approach_data": [
        {
            "close_approach_date": "2020-10-10",
            "close_approach_date_full": "2020-Oct-10 21:08",
            "epoch_date_close_approach": 1602364080000,
            "relative_velocity": {
                "kilometers_per_second": "9.221157205",
                "kilometers_per_hour": "33196.1659379335",
                "miles_per_hour": "20626.8065518232"
            },
            "miss_distance": {
                "astronomical": "0.011245219",
                "lunar": "4.374390191",
                "kilometers": "1682260.81008353",
                "miles": "1045308.395791514"
            },
            "orbiting_body": "Earth"
        }
    ],
    "orbital_data": {
        "orbit_id": "4",
        "orbit_determination_date": "2020-10-11 07:11:25",
        "first_observation_date": "2020-10-08",
        "last_observation_date": "2020-10-11",
        "data_arc_in_days": 3,
        "observations_used": 44,
        "orbit_uncertainty": "7",
        "minimum_orbit_intersection": ".00559569",
        "jupiter_tisserand_invariant": "3.295",
        "epoch_osculation": "2459000.5",
        "eccentricity": ".5876527206965366",
        "semi_major_axis": "2.356548361860348",
        "inclination": "3.602362727656987",
        "ascending_node_longitude": "16.52783646119352",
        "orbital_period": "1321.335071073364",
        "perihelion_distance": ".9717163055601479",
        "perihelion_argument": "26.80108155066823",
        "aphelion_distance": "3.741380418160547",
        "perihelion_time": "2459153.293053246942",
        "mean_anomaly": "318.371271320138",
        "mean_motion": ".2724517103050629",
        "equinox": "J2000",
        "orbit_class": {
            "orbit_class_type": "APO",
            "orbit_class_description": "Near-Earth asteroid orbits which cross the Earth’s orbit similar to that of 1862 Apollo",
            "orbit_class_range": "a (semi-major axis) > 1.0 AU; q (perihelion) < 1.017 AU"
        }
    },
    "is_sentry_object": false
}